NORAD_CAT_ID,OBJECT_NAME,OBJECT_TYPE,EPOCH,MEAN_MOTION,ECCENTRICITY,INCLINATION,RA_OF_ASC_NODE,ARG_OF_PERICENTER,MEAN_ANOMALY,BSTAR,MEAN_MOTION_DOT,MEAN_MOTION_DDOT,TLE_LINE0,TLE_LINE1,TLE_LINE2,SEMIMAJOR_AXIS,PERIOD,APOGEE,PERIGEE,DECAYED
52348.0,STARLINK-3829,PAYLOAD,2024-05-08 19:32:20,15.0884448,0.0001321,53.2169,326.31,81.7218,278.3924,0.00022325,3.267e-05,0.0,0 STARLINK-3829,1 52348U 22045T   24129.81412353  .00003267  00000-0  22325-3 0  9995,2 52348  53.2169 326.3100 0001321  81.7218 278.3924 15.08844480114653,6917.867,95.437,540.646,538.818,0.0
52348.0,STARLINK-3829,PAYLOAD,2024-05-09 06:40:01,15.08855081,0.0001398,53.2178,324.228,80.6461,279.469,0.00039614,6.025e-05,0.0,0 STARLINK-3829,1 52348U 22045T   24130.27779989  .00006025  00000-0  39614-3 0  9992,2 52348  53.2178 324.2280 0001398  80.6461 279.4690 15.08855081114720,6917.834,95.437,540.666,538.732,0.0
52348.0,STARLINK-3829,PAYLOAD,2024-05-09 19:23:07,15.08838476,0.0001328,53.2173,321.8486,83.5811,276.5332,0.00014315,1.991e-05,0.0,0 STARLINK-3829,1 52348U 22045T   24130.80772625  .00001991  00000-0  14315-3 0  9999,2 52348  53.2173 321.8486 0001328  83.5811 276.5332 15.08838476114809,6917.885,95.438,540.669,538.831,0.0
52348.0,STARLINK-3829,PAYLOAD,2024-05-10 12:52:22,15.08847006,0.0001313,53.2174,318.5783,83.7123,276.4019,0.00054916,8.464e-05,0.0,0 STARLINK-3829,1 52348U 22045T   24131.53636744  .00008464  00000-0  54916-3 0  9994,2 52348  53.2174 318.5783 0001313  83.7123 276.4019 15.08847006114917,6917.859,95.437,540.632,538.816,0.0
52348.0,STARLINK-3829,PAYLOAD,2024-05-10 19:13:54,15.08843807,0.0001128,53.2165,317.3881,93.0148,267.0973,0.00053664,8.264e-05,0.0,0 STARLINK-3829,1 52348U 22045T   24131.80132851  .00008264  00000-0  53664-3 0  9991,2 52348  53.2165 317.3881 0001128  93.0148 267.0973 15.08843807114952,6917.869,95.437,540.514,538.953,0.0
52348.0,STARLINK-3829,PAYLOAD,2024-05-11 12:43:06,15.08932042,9.97e-05,53.2159,314.1131,83.4771,276.6334,0.0025023,0.00039862,0.0,0 STARLINK-3829,1 52348U 22045T   24132.52993657  .00039862  00000-0  25023-2 0  9995,2 52348  53.2159 314.1131 0000997  83.4771 276.6334 15.08932042115066,6917.599,95.432,540.154,538.774,0.0
52348.0,STARLINK-3829,PAYLOAD,2024-05-11 19:04:40,15.08807058,0.0001215,53.2166,312.9263,85.8881,274.225,-0.0025918,-0.00041263,0.0,0 STARLINK-3829,1 52348U 22045T   24132.79491851 -.00041263  00000-0 -25918-2 0  9996,2 52348  53.2166 312.9263 0001215  85.8881 274.2250 15.08807058115102,6917.981,95.44,540.687,539.006,0.0
52348.0,STARLINK-3829,PAYLOAD,2024-05-11 22:15:27,15.08766234,0.0001382,53.2175,312.3331,90.1055,270.0095,-0.0040069,-0.00063369,0.0,0 STARLINK-3829,1 52348U 22045T   24132.92740184 -.00063369  00000-0 -40069-2 0  9992,2 52348  53.2175 312.3331 0001382  90.1055 270.0095 15.08766234115122,6918.106,95.442,540.927,539.015,0.0
52348.0,STARLINK-3829,PAYLOAD,2024-05-12 04:37:02,15.08749949,0.0001131,53.2161,311.1435,88.1424,271.9697,-0.00052176,-8.561e-05,0.0,0 STARLINK-3829,1 52348U 22045T   24133.19238434 -.00008561  00000-0 -52176-3 0  9998,2 52348  53.2161 311.1435 0001131  88.1424 271.9697 15.08749949115164,6918.156,95.443,540.803,539.238,0.0
52348.0,STARLINK-3829,PAYLOAD,2024-05-12 10:58:36,15.08728243,0.0001461,53.2181,309.956,102.199,257.9166,0.00060407,9.31e-05,0.0,0 STARLINK-3829,1 52348U 22045T   24133.45736630  .00009310  00000-0  60407-3 0  9995,2 52348  53.2181 309.9560 0001461 102.1990 257.9166 15.08728243115205,6918.222,95.445,541.098,539.076,0.0
52348.0,STARLINK-3829,PAYLOAD,2024-05-12 18:55:33,15.087966,0.0001496,53.217,308.4677,94.2261,265.8902,0.0035369,0.00056385,0.0,0 STARLINK-3829,1 52348U 22045T   24133.78857741  .00056385  00000-0  35369-2 0  9990,2 52348  53.2170 308.4677 0001496  94.2261 265.8902 15.08796600115259,6918.013,95.44,540.913,538.843,0.0
52348.0,STARLINK-3829,PAYLOAD,2024-05-13 20:21:42,15.08872339,0.0001284,53.2167,303.7099,88.8323,271.2817,0.0015484,0.00024463,0.0,0 STARLINK-3829,1 52348U 22045T   24134.84840974  .00024463  00000-0  15484-2 0  9996,2 52348  53.2167 303.7099 0001284  88.8323 271.2817 15.08872339115412,6917.782,95.436,540.535,538.758,0.0
52348.0,STARLINK-3829,PAYLOAD,2024-05-14 10:40:09,15.08892345,0.0001281,53.2162,301.0336,86.7701,273.3438,0.0012244,0.0001928,0.0,0 STARLINK-3829,1 52348U 22045T   24135.44455295  .00019280  00000-0  12244-2 0  9993,2 52348  53.2162 301.0336 0001281  86.7701 273.3438 15.08892345115507,6917.72,95.434,540.472,538.699,0.0
52348.0,STARLINK-3829,PAYLOAD,2024-05-14 17:01:41,15.0889549,0.0001644,53.2158,299.843,105.6193,254.4981,0.0012352,0.00019455,0.0,0 STARLINK-3829,1 52348U 22045T   24135.70950621  .00019455  00000-0  12352-2 0  9999,2 52348  53.2158 299.8430 0001644 105.6193 254.4981 15.08895490115541,6917.711,95.434,540.713,538.439,0.0
52348.0,STARLINK-3829,PAYLOAD,2024-05-15 10:30:54,15.08871666,0.0002709,53.2115,296.572,96.9298,263.2003,0.00059758,9.243e-05,0.0,0 STARLINK-3829,1 52348U 22045T   24136.43812585  .00009243  00000-0  59758-3 0  9992,2 52348  53.2115 296.5720 0002709  96.9298 263.2003 15.08871666115655,6917.784,95.436,541.523,537.775,0.0
52348.0,STARLINK-3829,PAYLOAD,2024-05-15 20:03:13,15.08836015,0.0001406,53.2156,294.7892,105.0085,255.1063,0.0014503,0.00022866,0.0,0 STARLINK-3829,1 52348U 22045T   24136.83556775  .00022866  00000-0  14503-2 0  9996,2 52348  53.2156 294.7892 0001406 105.0085 255.1063 15.08836015115711,6917.893,95.438,540.73,538.785,0.0
52348.0,STARLINK-3829,PAYLOAD,2024-05-16 04:00:08,15.08871531,0.0001089,53.2139,293.3015,91.3927,268.719,0.00095389,0.00014939,0.0,0 STARLINK-3829,1 52348U 22045T   24137.16676104  .00014939  00000-0  95389-3 0  9996,2 52348  53.2139 293.3015 0001089  91.3927 268.7190 15.08871531115761,6917.784,95.436,540.402,538.896,0.0
52348.0,STARLINK-3829,PAYLOAD,2024-05-16 10:21:41,15.08860158,0.0003864,53.2135,292.1106,90.6013,269.5422,0.0018442,0.00029204,0.0,0 STARLINK-3829,1 52348U 22045T   24137.43173294  .00029204  00000-0  18442-2 0  9993,2 52348  53.2135 292.1106 0003864  90.6013 269.5422 15.08860158115801,6917.819,95.436,542.357,537.011,0.0
52348.0,STARLINK-3829,PAYLOAD,2024-05-16 19:54:00,15.08846147,0.0001709,53.2135,290.3285,86.6564,273.4624,0.0016746,0.00026468,0.0,0 STARLINK-3829,1 52348U 22045T   24137.82917064  .00026468  00000-0  16746-2 0  9991,2 52348  53.2135 290.3285 0001709  86.6564 273.4624 15.08846147115867,6917.862,95.437,540.909,538.544,0.0
52348.0,STARLINK-3829,PAYLOAD,2024-05-17 10:12:29,15.08840812,0.0002692,53.2144,287.6507,89.7701,270.36,0.0014114,0.00022247,0.0,0 STARLINK-3829,1 52348U 22045T   24138.42533849  .00022247  00000-0  14114-2 0  9991,2 52348  53.2144 287.6507 0002692  89.7701 270.3600 15.08840812115955,6917.878,95.438,541.605,537.881,0.0
52348.0,STARLINK-3829,PAYLOAD,2024-05-17 16:34:02,15.0880718,3.98e-05,53.2149,286.462,90.3765,269.7273,0.00082484,0.00012852,0.0,0 STARLINK-3829,1 52348U 22045T   24138.69030391  .00012852  00000-0  82484-3 0  9991,2 52348  53.2149 286.4620 0000398  90.3765 269.7273 15.08807180115995,6917.981,95.44,540.121,539.57,0.0
52348.0,STARLINK-3829,PAYLOAD,2024-05-18 13:14:02,15.08871521,8.7e-05,53.2138,282.5942,92.4662,267.6429,0.002094,0.00033224,0.0,0 STARLINK-3829,1 52348U 22045T   24139.55142204  .00033224  00000-0  20940-2 0  9998,2 52348  53.2138 282.5942 0000870  92.4662 267.6429 15.08871521116127,6917.784,95.436,540.251,539.047,0.0
52348.0,STARLINK-3829,PAYLOAD,2024-05-18 14:49:25,15.08878381,0.0001092,53.2153,282.2981,95.9137,264.1979,0.0022752,0.00036146,0.0,0 STARLINK-3829,1 52348U 22045T   24139.61766072  .00036146  00000-0  22752-2 0  9999,2 52348  53.2153 282.2981 0001092  95.9137 264.1979 15.08878381116130,6917.763,95.435,540.383,538.873,0.0
52348.0,STARLINK-3829,PAYLOAD,2024-05-18 16:24:48,15.08885488,9.16e-05,53.2146,282.0009,72.9542,287.1551,0.0024867,0.0003956,0.0,0 STARLINK-3829,1 52348U 22045T   24139.68389903  .00039560  00000-0  24867-2 0  9992,2 52348  53.2146 282.0009 0000916  72.9542 287.1551 15.08885488116148,6917.741,95.435,540.24,538.973,0.0
52348.0,STARLINK-3829,PAYLOAD,2024-05-19 01:57:05,15.08934711,0.0001077,53.2163,280.2167,74.9559,285.1553,0.0031093,0.00049674,0.0,0 STARLINK-3829,1 52348U 22045T   24140.08131777  .00049674  00000-0  31093-2 0  9998,2 52348  53.2163 280.2167 0001077  74.9559 285.1553 15.08934711116202,6917.591,95.432,540.201,538.711,0.0
52348.0,STARLINK-3829,PAYLOAD,2024-05-19 13:04:48,15.08803763,0.0001172,53.2161,278.1388,116.1019,244.0094,0.0019381,0.00030661,0.0,0 STARLINK-3829,1 52348U 22045T   24140.54501026  .00030661  00000-0  19381-2 0  9999,2 52348  53.2161 278.1388 0001172 116.1019 244.0094 15.08803763116270,6917.991,95.44,540.667,539.045,0.0
52348.0,STARLINK-3829,PAYLOAD,2024-05-20 12:55:36,15.08837644,0.0001244,53.2158,273.6715,117.4933,242.6185,0.00098389,0.00015404,0.0,0 STARLINK-3829,1 52348U 22045T   24141.53861987  .00015404  00000-0  98389-3 0  9998,2 52348  53.2158 273.6715 0001244 117.4933 242.6185 15.08837644116426,6917.888,95.438,540.613,538.892,0.0
52348.0,STARLINK-3829,PAYLOAD,2024-05-20 14:30:59,15.08834891,0.0001233,53.2155,273.3752,119.6372,240.4743,0.00077412,0.00012052,0.0,0 STARLINK-3829,1 52348U 22045T   24141.60486021  .00012052  00000-0  77412-3 0  9998,2 52348  53.2155 273.3752 0001233 119.6372 240.4743 15.08834891116438,6917.896,95.438,540.614,538.908,0.0
52348.0,STARLINK-3829,PAYLOAD,2024-05-21 12:46:24,15.08836707,0.000112,53.2155,269.2123,112.3375,247.7736,0.000291,4.346e-05,0.0,0 STARLINK-3829,1 52348U 22045T   24142.53222431  .00004346  00000-0  29100-3 0  9992,2 52348  53.2155 269.2123 0001120 112.3375 247.7736 15.08836707116577,6917.89,95.438,540.53,538.981,0.0
52348.0,STARLINK-3829,PAYLOAD,2024-05-21 14:21:47,15.0883702,0.0001119,53.2157,268.9151,111.5557,248.5555,0.0002807,4.182e-05,0.0,0 STARLINK-3829,1 52348U 22045T   24142.59846445  .00004182  00000-0  28070-3 0  9998,2 52348  53.2157 268.9151 0001119 111.5557 248.5555 15.08837020116585,6917.889,95.438,540.529,538.98,0.0
